NORAD_CAT_ID,OBJECT_NAME,OBJECT_TYPE,EPOCH,MEAN_MOTION,ECCENTRICITY,INCLINATION,RA_OF_ASC_NODE,ARG_OF_PERICENTER,MEAN_ANOMALY,BSTAR,MEAN_MOTION_DOT,MEAN_MOTION_DDOT,TLE_LINE0,TLE_LINE1,TLE_LINE2,SEMIMAJOR_AXIS,PERIOD,APOGEE,PERIGEE,DECAYED
56498.0,STARLINK-5522,PAYLOAD,2023-11-18 13:31:09,15.28601381,0.0003446,69.9989,68.8033,272.9931,87.0849,-6.4969e-06,-3.08e-06,0.0,0 STARLINK-5522,1 56498U 23064BC  23322.56330179 -.00000308  00000-0 -64969-5 0  9995,2 56498  69.9989  68.8033 0003446 272.9931  87.0849 15.28601381 30062,6858.129,94.204,482.358,477.631,0.0
56498.0,STARLINK-5522,PAYLOAD,2023-11-19 11:30:23,15.28599163,0.0003344,69.9988,66.3826,272.3852,87.694,1.622e-05,3.26e-06,0.0,0 STARLINK-5522,1 56498U 23064BC  23323.47943978  .00000326  00000-0  16220-4 0  9997,2 56498  69.9988  66.3826 0003344 272.3852  87.6940 15.28599163 30564,6858.136,94.204,482.294,477.708,0.0
56498.0,STARLINK-5522,PAYLOAD,2023-11-19 13:04:37,15.28599811,0.0003339,69.9988,66.2097,272.3108,87.7684,1.9004e-05,4.04e-06,0.0,0 STARLINK-5522,1 56498U 23064BC  23323.54487767  .00000404  00000-0  19004-4 0  9994,2 56498  69.9988  66.2097 0003339 272.3108  87.7684 15.28599811 30219,6858.134,94.204,482.289,477.709,0.0
56498.0,STARLINK-5522,PAYLOAD,2023-11-19 16:13:05,15.28599211,0.0003347,69.999,65.8642,272.4223,87.6568,1.5219e-05,2.98e-06,0.0,0 STARLINK-5522,1 56498U 23064BC  23323.67575528  .00000298  00000-0  15219-4 0  9996,2 56498  69.9990  65.8642 0003347 272.4223  87.6568 15.28599211 30237,6858.136,94.204,482.296,477.705,0.0
56498.0,STARLINK-5522,PAYLOAD,2023-11-20 00:04:16,15.28581089,0.0002872,70.0019,65.0014,276.9743,83.1105,-8.6104e-05,-2.526e-05,0.0,0 STARLINK-5522,1 56498U 23064BC  23324.00296895 -.00002526  00000-0 -86104-4 0  9990,2 56498  70.0019  65.0014 0002872 276.9743  83.1105 15.28581089 30642,6858.19,94.205,482.025,478.085,0.0
56498.0,STARLINK-5522,PAYLOAD,2023-11-20 09:30:19,15.28102084,0.0002666,69.9989,63.9641,258.8945,101.193,-0.0022904,-0.00062529,0.0,0 STARLINK-5522,1 56498U 23064BC  23324.39606071 -.00062529  00000-0 -22904-2 0  9998,2 56498  69.9989  63.9641 0002666 258.8945 101.1930 15.28102084 30700,6859.623,94.235,483.317,479.659,0.0
56498.0,STARLINK-5522,PAYLOAD,2023-11-20 11:09:08,15.2438003,0.0014173,69.9973,63.8022,101.5342,258.7423,-0.021473,-0.00495718,0.0,0 STARLINK-5522,1 56498U 23064BC  23324.46468254 -.00495718  00000-0 -21473-1 0  9994,2 56498  69.9973  63.8022 0014173 101.5342 258.7423 15.24380030 30358,6870.785,94.465,502.388,482.912,0.0
56498.0,STARLINK-5522,PAYLOAD,2023-11-20 15:53:23,15.23593338,0.0013346,69.9966,63.2874,90.2062,270.0639,-0.024941,-0.00563404,0.0,0 STARLINK-5522,1 56498U 23064BC  23324.66207476 -.00563404  00000-0 -24941-1 0  9994,2 56498  69.9966  63.2874 0013346  90.2062 270.0639 15.23593338 30748,6873.15,94.513,504.188,485.842,0.0
56498.0,STARLINK-5522,PAYLOAD,2023-11-21 06:00:00,15.25981204,0.0003358,70.0008,61.7117,270.4344,103.9065,-0.037218,-0.00881169,0.0,0 STARLINK-5522,1 56498U 23064BC  23325.25001157 -.00881169  00000-0 -37218-1 0  9990,2 56498  70.0008  61.7117 0003358 270.4344 103.9065 15.25981204 30830,6865.978,94.366,490.148,485.537,0.0
56498.0,STARLINK-5522,PAYLOAD,2023-11-21 14:00:01,15.25330106,0.0003383,70.0007,60.8349,276.7085,127.8991,-0.03875,-0.00898093,0.0,0 STARLINK-5522,1 56498U 23064BC  23325.58334491 -.00898093  00000-0 -38750-1 0  9992,2 56498  70.0007  60.8349 0003383 276.7085 127.8991 15.25330106  5974,6867.931,94.406,492.12,487.473,0.0
56498.0,STARLINK-5522,PAYLOAD,2023-11-22 00:00:00,15.24516368,0.0003199,70.0008,59.7403,274.1319,257.2015,-0.040414,-0.00924072,0.0,0 STARLINK-5522,1 56498U 23064BC  23326.00001157 -.00924072  00000-0 -40414-1 0  9997,2 56498  70.0008  59.7403 0003199 274.1319 257.2015 15.24516368  5879,6870.375,94.456,494.438,490.042,0.0
56498.0,STARLINK-5522,PAYLOAD,2023-11-22 06:00:00,15.24031152,0.0003251,70.001,59.0844,272.9306,189.8388,-0.039962,-0.00902202,0.0,0 STARLINK-5522,1 56498U 23064BC  23326.25001157 -.00902202  00000-0 -39962-1 0  9991,2 56498  70.0010  59.0844 0003251 272.9306 189.8388 15.24031152 30981,6871.833,94.486,495.932,491.464,0.0
56498.0,STARLINK-5522,PAYLOAD,2023-11-22 14:00:01,15.23368913,0.0003276,70.0009,58.2105,278.5645,212.1279,-0.040736,-0.00901727,0.0,0 STARLINK-5522,1 56498U 23064BC  23326.58334491 -.00901727  00000-0 -40736-1 0  9999,2 56498  70.0009  58.2105 0003276 278.5645 212.1279 15.23368913  5972,6873.825,94.527,497.942,493.438,0.0
56498.0,STARLINK-5522,PAYLOAD,2023-11-22 22:00:00,15.22747519,0.0003141,70.0008,57.3373,277.2886,240.5253,-0.044547,-0.00963095,0.0,0 STARLINK-5522,1 56498U 23064BC  23326.91667824 -.00963095  00000-0 -44547-1 0  9995,2 56498  70.0008  57.3373 0003141 277.2886 240.5253 15.22747519 31082,6875.695,94.566,499.719,495.4,0.0
56498.0,STARLINK-5522,PAYLOAD,2023-11-23 00:00:00,15.22555566,0.0003257,70.0011,57.1191,273.7129,340.7706,-0.042502,-0.00917183,0.0,0 STARLINK-5522,1 56498U 23064BC  23327.00001157 -.00917183  00000-0 -42502-1 0  9993,2 56498  70.0011  57.1191 0003257 273.7129 340.7706 15.22555566  6033,6876.272,94.578,500.377,495.898,0.0
56498.0,STARLINK-5522,PAYLOAD,2023-11-23 14:00:01,15.21407131,0.000324,70.0012,55.5937,278.2928,291.4438,-0.042718,-0.008929,0.0,0 STARLINK-5522,1 56498U 23064BC  23327.58334491 -.00892900  00000-0 -42718-1 0  9994,2 56498  70.0012  55.5937 0003240 278.2928 291.4438 15.21407131 31184,6879.732,94.649,503.826,499.368,0.0
56498.0,STARLINK-5522,PAYLOAD,2023-11-23 22:00:00,15.2078925,0.0003224,70.0013,54.7232,276.1903,318.3198,-0.047127,-0.00961793,0.0,0 STARLINK-5522,1 56498U 23064BC  23327.91667824 -.00961793  00000-0 -47127-1 0  9996,2 56498  70.0013  54.7232 0003224 276.1903 318.3198 15.20789250  5992,6881.596,94.688,505.679,501.242,0.0
56498.0,STARLINK-5522,PAYLOAD,2023-11-24 06:00:02,15.2012692,0.0003279,70.0017,53.8537,272.0552,346.5121,-0.045616,-0.00916543,0.0,0 STARLINK-5522,1 56498U 23064BC  23328.25002315 -.00916543  00000-0 -45616-1 0  9996,2 56498  70.0017  53.8537 0003279 272.0552 346.5121 15.20126920 31288,6883.594,94.729,507.717,503.202,0.0
56498.0,STARLINK-5522,PAYLOAD,2023-11-24 14:00:01,15.19449867,0.000335,70.0017,52.985,278.4558,3.2823,-0.045116,-0.00890708,0.0,0 STARLINK-5522,1 56498U 23064BC  23328.58334491 -.00890708  00000-0 -45116-1 0  9994,2 56498  70.0017  52.9850 0003350 278.4558   3.2823 15.19449867  5948,6885.639,94.771,509.811,505.197,0.0
56498.0,STARLINK-5522,PAYLOAD,2023-11-24 22:00:00,15.1882907,0.0003316,70.0016,52.1171,276.9254,27.2416,-0.04968,-0.00957873,0.0,0 STARLINK-5522,1 56498U 23064BC  23328.91667824 -.00957873  00000-0 -49680-1 0  9997,2 56498  70.0016  52.1171 0003316 276.9254  27.2416 15.18829070 31381,6887.515,94.81,511.664,507.096,0.0
56498.0,STARLINK-5522,PAYLOAD,2023-11-25 14:00:01,15.17494311,0.0003437,70.0019,50.3842,280.3965,66.3021,-0.047824,-0.00892129,0.0,0 STARLINK-5522,1 56498U 23064BC  23329.58334491 -.00892129  00000-0 -47824-1 0  9992,2 56498  70.0019  50.3842 0003437 280.3965  66.3021 15.17494311  6003,6891.553,94.893,515.787,511.05,0.0
56498.0,STARLINK-5522,PAYLOAD,2023-11-26 00:00:00,15.16670462,0.0003304,70.002,49.3027,278.3059,183.3862,-0.048834,-0.00889819,0.0,0 STARLINK-5522,1 56498U 23064BC  23330.00001157 -.00889819  00000-0 -48834-1 0  9995,2 56498  70.0020  49.3027 0003304 278.3059 183.3862 15.16670462  6074,6894.049,94.945,518.192,513.636,0.0
56498.0,STARLINK-5522,PAYLOAD,2023-11-26 06:00:00,15.16218329,0.0003364,70.0022,48.6547,274.9353,111.1431,-0.051752,-0.009279,0.0,0 STARLINK-5522,1 56498U 23064BC  23330.25001157 -.00927900  00000-0 -51752-1 0  9999,2 56498  70.0022  48.6547 0003364 274.9353 111.1431 15.16218329 31596,6895.419,94.973,519.604,514.965,0.0
56498.0,STARLINK-5522,PAYLOAD,2023-11-26 14:00:01,15.15537135,0.0003381,70.002,47.7912,279.1566,125.4623,-0.050453,-0.00890039,0.0,0 STARLINK-5522,1 56498U 23064BC  23330.58334491 -.00890039  00000-0 -50453-1 0  9994,2 56498  70.0020  47.7912 0003381 279.1566 125.4623 15.15537135  5930,6897.485,95.016,521.682,517.018,0.0
56498.0,STARLINK-5522,PAYLOAD,2023-11-26 22:00:00,15.14906664,0.000328,70.0019,46.9284,275.7897,146.5685,-0.054731,-0.00944026,0.0,0 STARLINK-5522,1 56498U 23064BC  23330.91667824 -.00944026  00000-0 -54731-1 0  9999,2 56498  70.0019  46.9284 0003280 275.7897 146.5685 15.14906664  5981,6899.399,95.055,523.527,519.001,0.0
56498.0,STARLINK-5522,PAYLOAD,2023-11-27 06:00:00,15.14264166,0.0003293,70.0021,46.0669,273.174,166.1319,-0.054943,-0.00931573,0.0,0 STARLINK-5522,1 56498U 23064BC  23331.25001157 -.00931573  00000-0 -54943-1 0  9996,2 56498  70.0021  46.0669 0003293 273.1740 166.1319 15.14264166 31744,6901.35,95.096,525.488,520.943,0.0
56498.0,STARLINK-5522,PAYLOAD,2023-11-27 14:00:01,15.13579339,0.0003317,70.0019,45.206,279.6167,175.8832,-0.053252,-0.00888834,0.0,0 STARLINK-5522,1 56498U 23064BC  23331.58334491 -.00888834  00000-0 -53252-1 0  9995,2 56498  70.0019  45.2060 0003317 279.6167 175.8832 15.13579339  5993,6903.432,95.139,527.587,523.007,0.0
56498.0,STARLINK-5522,PAYLOAD,2023-11-27 22:00:00,15.12946953,0.0003254,70.0018,44.3458,276.4035,194.4886,-0.057423,-0.00937658,0.0,0 STARLINK-5522,1 56498U 23064BC  23331.91667824 -.00937658  00000-0 -57423-1 0  9994,2 56498  70.0018  44.3458 0003254 276.4035 194.4886 15.12946953  5818,6905.355,95.178,529.467,524.973,0.0
56498.0,STARLINK-5522,PAYLOAD,2023-11-28 06:00:00,15.12310649,0.0003184,70.002,43.4867,273.8777,211.6144,-0.058469,-0.00937834,0.0,0 STARLINK-5522,1 56498U 23064BC  23332.25001157 -.00937834  00000-0 -58469-1 0  9990,2 56498  70.0020  43.4867 0003184 273.8777 211.6144 15.12310649 31894,6907.292,95.219,531.357,526.958,0.0
56498.0,STARLINK-5522,PAYLOAD,2023-11-28 14:00:01,15.11620015,0.0003251,70.0017,42.6284,280.3543,218.9861,-0.055933,-0.00884066,0.0,0 STARLINK-5522,1 56498U 23064BC  23332.58334491 -.00884066  00000-0 -55933-1 0  9997,2 56498  70.0017  42.6284 0003251 280.3543 218.9861 15.11620015  5924,6909.396,95.262,533.507,529.015,0.0
